{"spkid": "54280767", "covariance": {"labels": ["e", "q", "tp", "node", "peri", "i"], "data": [["5.432963474845489E-15", "-1.149508062922824E-14", "-7.539102399665857E-12", "-8.131434180253501E-13", "1.445185031419097E-12", "1.123437868706127E-12"], ["-1.149508062922824E-14", "2.919670785928548E-14", "2.818603691704365E-11", "2.650408345955877E-12", "-4.962168513448422E-12", "-4.081300257045751E-12"], ["-7.539102399665857E-12", "2.818603691704365E-11", "4.153921386705439E-8", "3.519152289056164E-9", "-6.740473971807426E-9", "-5.859639753367826E-9"], ["-8.131434180253501E-13", "2.650408345955877E-12", "3.519152289056164E-9", "5.032167996608721E-10", "-7.614902173792736E-10", "-5.060578413762536E-10"], ["1.445185031419097E-12", "-4.962168513448422E-12", "-6.740473971807426E-9", "-7.614902173792736E-10", "1.330752748960844E-9", "9.724021470736334E-10"], ["1.123437868706127E-12", "-4.081300257045751E-12", "-5.859639753367826E-9", "-5.060578413762536E-10", "9.724021470736334E-10", "8.999792155591671E-10"]], "elements": [{"units": null, "value": ".7409172441297227", "title": "eccentricity", "sigma": 7.37086390787775e-08, "name": "e", "label": "e"}, {"sigma": 1.70870441736672e-07, "name": "q", "value": ".4397094651152972", "title": "perihelion distance", "units": "au", "label": "q"}, {"name": "tp", "sigma": 0.000203811711800511, "units": "TDB", "title": "time of perihelion passage", "value": "2460607.893452373379", "label": "tp"}, {"name": "om", "sigma": 2.24324942808612e-05, "units": "deg", "title": "longitude of the ascending node", "value": "75.7628711648949", "label": "node"}, {"label": "peri", "title": "argument of perihelion", "value": "292.8558591083362", "units": "deg", "sigma": 3.64794839459229e-05, "name": "w"}, {"label": "i", "title": "inclination", "value": "14.87495079909623", "units": "deg", "name": "i", "sigma": 2.99996535906528e-05}], "epoch": "2460314.5"}, "elements": [{"label": "e", "sigma": "7.367E-8", "name": "e", "value": ".7407668186404605", "title": "eccentricity", "units": null}, {"title": "semi-major axis", "value": "1.696893019574489", "units": "au", "sigma": "2.916E-7", "name": "a", "label": "a"}, {"name": "q", "sigma": "1.7016E-7", "units": "au", "title": "perihelion distance", "value": ".4398909758910901", "label": "q"}, {"title": "inclination; angle with respect to x-y ecliptic plane", "value": "14.87529403923387", "units": "deg", "name": "i", "sigma": "2.9999E-5", "label": "i"}, {"value": "75.76088412773605", "title": "longitude of the ascending node", "units": "deg", "sigma": "2.2404E-5", "name": "om", "label": "node"}, {"label": "peri", "sigma": "3.6454E-5", "name": "w", "units": "deg", "value": "292.8447341448399", "title": "argument of perihelion"}, {"label": "M", "sigma": ".00015865", "name": "ma", "units": "deg", "title": "mean anomaly", "value": "264.2774888723576"}, {"label": "tp", "sigma": ".00041098", "name": "tp", "title": "time of perihelion passage", "value": "2461415.180057986667", "units": "TDB"}, {"sigma": ".00020812", "name": "per", "units": "d", "value": "807.3839681466725", "title": "sidereal orbital period", "label": "period"}, {"label": "n", "units": "deg/d", "title": "mean motion", "value": ".4458845037837078", "sigma": "1.1493E-7", "name": "n"}, {"label": "Q", "name": "ad", "sigma": "5.0761E-7", "value": "2.953895063257888", "title": "aphelion distance", "units": "au"}], "epoch": "2461200.5"}